{"type": "FeatureCollection", "features": [ {"type": "Feature", "properties": {"norad_id": 57401, "name": "TIANMU-1 09", "group": "weather", "lat": -9.563429146226133, "lon": 47.63342814795287, "alt_km": 483.4170498894555, "timestamp": "2025-12-23T11:34:47.828950+00:00", "meta": {"OBJECT_NAME": "TIANMU-1 09", "OBJECT_ID": "2023-101C", "EPOCH": "2025-12-23T03:45:53.042688", "MEAN_MOTION": 15.28229357, "ECCENTRICITY": 0.0006347, "INCLINATION": 97.2803, "RA_OF_ASC_NODE": 46.081, "ARG_OF_PERICENTER": 55.3501, "MEAN_ANOMALY": 304.8337, "EPHEMERIS_TYPE": 0, "CLASSIFICATION_TYPE": "U", "NORAD_CAT_ID": 57401, "ELEMENT_SET_NO": 999, "REV_AT_EPOCH": 13474, "BSTAR": 0.00031278, "MEAN_MOTION_DOT": 8.537e-05, "MEAN_MOTION_DDOT": 0}, "tle": {"line1": "1 57401U 23101C   25357.15686392  .00008537  00000+0  31278-3 0  9992", "line2": "2 57401  97.2803  46.0810 0006347  55.3501 304.8337 15.28229357134747"}}, "geometry": {"type": "Point", "coordinates": [47.63342814795287, -9.563429146226133]}}, {"type": "Feature", "properties": {"norad_id": 57402, "name": "TIANMU-1 10", "group": "weather", "lat": 17.500925426941915, "lon": -130.4268002775724, "alt_km": 483.5940827254244, "timestamp": "2025-12-23T11:34:47.828966+00:00", "meta": {"OBJECT_NAME": "TIANMU-1 10", "OBJECT_ID": "2023-101D", "EPOCH": "2025-12-23T04:35:13.710624", "MEAN_MOTION": 15.28221823, "ECCENTRICITY": 0.0008069, "INCLINATION": 97.2883, "RA_OF_ASC_NODE": 46.9753, "ARG_OF_PERICENTER": 52.9922, "MEAN_ANOMALY": 307.2055, "EPHEMERIS_TYPE": 0, "CLASSIFICATION_TYPE": "U", "NORAD_CAT_ID": 57402, "ELEMENT_SET_NO": 999, "REV_AT_EPOCH": 13474, "BSTAR": 0.00030002, "MEAN_MOTION_DOT": 8.186e-05, "MEAN_MOTION_DDOT": 0}, "tle": {"line1": "1 57402U 23101D   25357.19113091  .00008186  00000+0  30002-3 0  9992", "line2": "2 57402  97.2883  46.9753 0008069  52.9922 307.2055 15.28221823134748"}}, "geometry": {"type": "Point", "coordinates": [-130.4268002775724, 17.500925426941915]}}, {"type": "Feature", "properties": {"norad_id": 57490, "name": "FENGYUN 3F", "group": "weather", "lat": -22.09761337752987, "lon": -117.96527509510355, "alt_km": 830.9776218254283, "timestamp": "2025-12-23T11:34:47.828983+00:00", "meta": {"OBJECT_NAME": "FENGYUN 3F", "OBJECT_ID": "2023-111A", "EPOCH": "2025-12-23T03:51:55.991808", "MEAN_MOTION": 14.19896255, "ECCENTRICITY": 8.02e-05, "INCLINATION": 98.7069, "RA_OF_ASC_NODE": 65.2857, "ARG_OF_PERICENTER": 115.4758, "MEAN_ANOMALY": 244.6502, "EPHEMERIS_TYPE": 0, "CLASSIFICATION_TYPE": "U", "NORAD_CAT_ID": 57490, "ELEMENT_SET_NO": 999, "REV_AT_EPOCH": 12388, "BSTAR": 6.4803e-05, "MEAN_MOTION_DOT": 9.4e-07, "MEAN_MOTION_DDOT": 0}, "tle": {"line1": "1 57490U 23111A   25357.16106472  .00000094  00000+0  64803-4 0  9999", "line2": "2 57490  98.7069  65.2857 0000802 115.4758 244.6502 14.19896255123885"}}, "geometry": {"type": "Point", "coordinates": [-117.96527509510355, -22.09761337752987]}}, {"type": "Feature", "properties": {"norad_id": 58584, "name": "ARKTIKA-M 2", "group": "weather", "lat": 61.87223499447856, "lon": -115.39454034764815, "alt_km": 37692.52261327474, "timestamp": "2025-12-23T11:34:47.829000+00:00", "meta": {"OBJECT_NAME": "ARKTIKA-M 2", "OBJECT_ID": "2023-198A", "EPOCH": "2025-12-22T07:11:23.769888", "MEAN_MOTION": 2.00602601, "ECCENTRICITY": 0.68656622, "INCLINATION": 63.2256, "RA_OF_ASC_NODE": 173.8511, "ARG_OF_PERICENTER": 268.066, "MEAN_ANOMALY": 18.8407, "EPHEMERIS_TYPE": 0, "CLASSIFICATION_TYPE": "U", "NORAD_CAT_ID": 58584, "ELEMENT_SET_NO": 999, "REV_AT_EPOCH": 1477, "BSTAR": 0, "MEAN_MOTION_DOT": 2.07e-06, "MEAN_MOTION_DDOT": 0}, "tle": {"line1": "1 58584U 23198A   25356.29958067  .00000207  00000+0  00000+0 0  9997", "line2": "2 58584  63.2256 173.8511 6865662 268.0660  18.8407  2.00602601 14773"}}, "geometry": {"type": "Point", "coordinates": [-115.39454034764815, 61.87223499447856]}}, {"type": "Feature", "properties": {"norad_id": 58645, "name": "TIANMU-1 11", "group": "weather", "lat": -26.392127297573126, "lon": -166.7604177112303, "alt_km": 494.6752052003094, "timestamp": "2025-12-23T11:34:47.829016+00:00", "meta": {"OBJECT_NAME": "TIANMU-1 11", "OBJECT_ID": "2023-205A", "EPOCH": "2025-12-23T04:22:33.547872", "MEAN_MOTION": 15.24719595, "ECCENTRICITY": 0.0007528, "INCLINATION": 97.3593, "RA_OF_ASC_NODE": 16.6219, "ARG_OF_PERICENTER": 265.7195, "MEAN_ANOMALY": 94.3183, "EPHEMERIS_TYPE": 0, "CLASSIFICATION_TYPE": "U", "NORAD_CAT_ID": 58645, "ELEMENT_SET_NO": 999, "REV_AT_EPOCH": 11068, "BSTAR": 0.0002637, "MEAN_MOTION_DOT": 6.459e-05, "MEAN_MOTION_DDOT": 0}, "tle": {"line1": "1 58645U 23205A   25357.18233273  .00006459  00000+0  26370-3 0  9995", "line2": "2 58645  97.3593  16.6219 0007528 265.7195  94.3183 15.24719595110680"}}, "geometry": {"type": "Point", "coordinates": [-166.7604177112303, -26.392127297573126]}}, {"type": "Feature", "properties": {"norad_id": 58646, "name": "TIANMU-1 12", "group": "weather", "lat": 53.6223570682538, "lon": 6.6157150196745285, "alt_km": 490.96824325112266, "timestamp": "2025-12-23T11:34:47.829031+00:00", "meta": {"OBJECT_NAME": "TIANMU-1 12", "OBJECT_ID": "2023-205B", "EPOCH": "2025-12-23T03:27:59.646240", "MEAN_MOTION": 15.24604852, "ECCENTRICITY": 0.0005898, "INCLINATION": 97.3581, "RA_OF_ASC_NODE": 16.3867, "ARG_OF_PERICENTER": 243.8662, "MEAN_ANOMALY": 116.197, "EPHEMERIS_TYPE": 0, "CLASSIFICATION_TYPE": "U", "NORAD_CAT_ID": 58646, "ELEMENT_SET_NO": 999, "REV_AT_EPOCH": 11066, "BSTAR": 0.00029542, "MEAN_MOTION_DOT": 7.218e-05, "MEAN_MOTION_DDOT": 0}, "tle": {"line1": "1 58646U 23205B   25357.14444035  .00007218  00000+0  29542-3 0  9990", "line2": "2 58646  97.3581  16.3867 0005898 243.8662 116.1970 15.24604852110662"}}, "geometry": {"type": "Point", "coordinates": [6.6157150196745285, 53.6223570682538]}}, {"type": "Feature", "properties": {"norad_id": 58647, "name": "TIANMU-1 13", "group": "weather", "lat": -51.48800086785681, "lon": -172.42490510697883, "alt_km": 494.4655217924419, "timestamp": "2025-12-23T11:34:47.829046+00:00", "meta": {"OBJECT_NAME": "TIANMU-1 13", "OBJECT_ID": "2023-205C", "EPOCH": "2025-12-23T04:15:52.728768", "MEAN_MOTION": 15.24648625, "ECCENTRICITY": 0.0006481, "INCLINATION": 97.3609, "RA_OF_ASC_NODE": 16.6247, "ARG_OF_PERICENTER": 221.1628, "MEAN_ANOMALY": 138.9121, "EPHEMERIS_TYPE": 0, "CLASSIFICATION_TYPE": "U", "NORAD_CAT_ID": 58647, "ELEMENT_SET_NO": 999, "REV_AT_EPOCH": 11066, "BSTAR": 0.00026795, "MEAN_MOTION_DOT": 6.549e-05, "MEAN_MOTION_DDOT": 0}, "tle": {"line1": "1 58647U 23205C   25357.17769362  .00006549  00000+0  26795-3 0  9990", "line2": "2 58647  97.3609  16.6247 0006481 221.1628 138.9121 15.24648625110665"}}, "geometry": {"type": "Point", "coordinates": [-172.42490510697883, -51.48800086785681]}}, {"type": "Feature", "properties": {"norad_id": 58648, "name": "TIANMU-1 14", "group": "weather", "lat": -37.271202986862384, "lon": 21.903631481599632, "alt_km": 498.87047142903157, "timestamp": "2025-12-23T11:34:47.829062+00:00", "meta": {"OBJECT_NAME": "TIANMU-1 14", "OBJECT_ID": "2023-205D", "EPOCH": "2025-12-23T05:26:38.969088", "MEAN_MOTION": 15.24632212, "ECCENTRICITY": 0.0007197, "INCLINATION": 97.3542, "RA_OF_ASC_NODE": 16.0121, "ARG_OF_PERICENTER": 227.1223, "MEAN_ANOMALY": 132.9411, "EPHEMERIS_TYPE": 0, "CLASSIFICATION_TYPE": "U", "NORAD_CAT_ID": 58648, "ELEMENT_SET_NO": 999, "REV_AT_EPOCH": 11067, "BSTAR": 0.00027938, "MEAN_MOTION_DOT": 6.83e-05, "MEAN_MOTION_DDOT": 0}, "tle": {"line1": "1 58648U 23205D   25357.22683992  .00006830  00000+0  27938-3 0  9994", "line2": "2 58648  97.3542  16.0121 0007197 227.1223 132.9411 15.24632212110671"}}, "geometry": {"type": "Point", "coordinates": [21.903631481599632, -37.271202986862384]}}, {"type": "Feature", "properties": {"norad_id": 58660, "name": "TIANMU-1 19", "group": "weather", "lat": -12.415059424144761, "lon": 110.14792929926492, "alt_km": 488.72929011024644, "timestamp": "2025-12-23T11:34:47.829077+00:00", "meta": {"OBJECT_NAME": "TIANMU-1 19", "OBJECT_ID": "2023-208A", "EPOCH": "2025-12-23T05:20:52.944000", "MEAN_MOTION": 15.28032102, "ECCENTRICITY": 0.0004668, "INCLINATION": 97.4393, "RA_OF_ASC_NODE": 108.2404, "ARG_OF_PERICENTER": 207.5252, "MEAN_ANOMALY": 152.5741, "EPHEMERIS_TYPE": 0, "CLASSIFICATION_TYPE": "U", "NORAD_CAT_ID": 58660, "ELEMENT_SET_NO": 999, "REV_AT_EPOCH": 11042, "BSTAR": 0.00036445, "MEAN_MOTION_DOT": 9.896e-05, "MEAN_MOTION_DDOT": 0}, "tle": {"line1": "1 58660U 23208A   25357.22283500  .00009896  00000+0  36445-3 0  9990", "line2": "2 58660  97.4393 108.2404 0004668 207.5252 152.5741 15.28032102110425"}}, "geometry": {"type": "Point", "coordinates": [110.14792929926492, -12.415059424144761]}}, {"type": "Feature", "properties": {"norad_id": 58661, "name": "TIANMU-1 20", "group": "weather", "lat": 70.82236749945537, "lon": -48.994148490910256, "alt_km": 473.1436200775752, "timestamp": "2025-12-23T11:34:47.829092+00:00", "meta": {"OBJECT_NAME": "TIANMU-1 20", "OBJECT_ID": "2023-208B", "EPOCH": "2025-12-23T04:49:42.367584", "MEAN_MOTION": 15.29221624, "ECCENTRICITY": 0.0006726, "INCLINATION": 97.4332, "RA_OF_ASC_NODE": 108.6767, "ARG_OF_PERICENTER": 222.3371, "MEAN_ANOMALY": 137.7351, "EPHEMERIS_TYPE": 0, "CLASSIFICATION_TYPE": "U", "NORAD_CAT_ID": 58661, "ELEMENT_SET_NO": 999, "REV_AT_EPOCH": 11049, "BSTAR": 0.00037421, "MEAN_MOTION_DOT": 0.00010545, "MEAN_MOTION_DDOT": 0}, "tle": {"line1": "1 58661U 23208B   25357.20118481  .00010545  00000+0  37421-3 0  9992", "line2": "2 58661  97.4332 108.6767 0006726 222.3371 137.7351 15.29221624110498"}}, "geometry": {"type": "Point", "coordinates": [-48.994148490910256, 70.82236749945537]}}]}